P/2017 U3 (PANSTARRS),e,15.9235,165.0530,296.5081,4.919131,0.0903382,0.10090746,210.6569,09/05.0/2025,2000,g 11.0,4.0
# From MPEC 2023-A50
C/2017 U7 (PANSTARRS),h,09/16.2456/2019,142.6401,276.3227,326.4038,1.002699,6.417343,2000,8.3,2.0
# From MPC114601
P/2017 W3 (Gibbs),e,18.1910,210.0550,327.7747,7.817626,0.0450912,0.50717714,123.8692,09/05.0/2025,2000,g 10.5,4.0
# From MPEC 2024-DC6
C/2017 Y2 (PANSTARRS),h,11/04.8579/2020,128.4472,66.0266,147.7872,1.000958,4.619873,2000,15.0,4.0
# From MPC111770
P/2017 Y3 (Leonard),e,27.6370,154.0402,67.2998,9.792701,0.0321625,0.86970924,89.0148,09/05.0/2025,2000,g 16.5,4.0
# From MPEC 2021-P47
C/2018 A3 (ATLAS),e,139.6184,194.3683,86.5359,346.7162,0.0001527,0.99049663,0.0000,01/08.5526/2019,2000,g  8.5,4.0
# From MPC109147
P/2018 A5 (PANSTARRS),e,23.6242,87.7836,359.5639,5.623999,0.0738986,0.52452366,214.0896,09/05.0/2025,2000,g 15.0,4.0
# From MPEC 2024-JU4
C/2018 A6 (Gibbs),e,77.1713,340.4689,264.2568,14.99445,0.0169749,0.79884984,38.1715,09/05.0/2025,2000,g  9.0,4.0
# From MPC114601
P/2018 C1 (Lemmon-Read),e,5.1005,270.1758,235.8282,5.649160,0.0734054,0.53273631,201.8132,09/05.0/2025,2000,g 13.5,4.0
# From MPEC 2022-M88
C/2018 DO4 (Lemmon),e,160.4441,251.3986,176.4395,25.54390,0.0076344,0.90515874,16.8781,09/05.0/2025,2000,g 11.0,4.0
# From MPEC 2021-R75
C/2018 F1 (Grauer),e,46.1878,177.3296,71.4025,215.8227,0.0003109,0.98614620,0.0000,12/10.0857/2018,2000,g 11.5,4.0
# From MPEC 2023-A50
C/2018 F4 (PANSTARRS),e,78.1499,26.5447,263.1919,1675,0.0000144,0.99794135,0.0000,11/30.6843/2019,2000,g 11.0,6.0
# From MPEC 2021-Y10
C/2018 F4-A,e,78.1501,26.5448,263.1887,1633,0.0000149,0.99788841,0.0000,11/30.6724/2019,2000,g 11.0,6.0
# From MPEC 2023-D41
C/2018 F4-B,e,78.1511,26.5443,263.1745,1705,0.0000140,0.99797716,0.0000,11/30.6092/2019,2000,g 11.0,6.0
# From MPC114602
P/2018 H2 (PANSTARRS),e,7.4148,67.9876,119.1274,4.411647,0.1063660,0.53978805,300.5207,09/05.0/2025,2000,g 16.6,2.0
# From MPEC 2021-R75
C/2018 KJ3 (Lemmon),e,136.6187,91.6962,217.5210,673.6981,0.0000564,0.99463134,0.0000,09/08.4760/2019,2000,g 12.2,2.0
# From MPEC 2021-P47
C/2018 L2 (ATLAS),e,67.2253,242.9934,56.3416,233.8361,0.0002756,0.99263593,0.0000,11/29.1847/2018,2000,g 10.0,4.0
# From MPC114603
P/2018 L4 (PANSTARRS),e,26.5987,145.2166,140.4932,4.949163,0.0895172,0.65836858,232.6933,09/05.0/2025,2000,g 17.5,4.0
# From MPEC 2022-YN2
C/2018 N2 (ASASSN),h,11/12.1100/2019,77.4828,24.5345,25.3322,1.002067,3.136285,2000,6.0,4.0
# From MPC114603
P/2018 P4 (PANSTARRS),e,23.0742,353.1603,8.5176,6.696575,0.0568755,0.44885484,141.8792,09/05.0/2025,2000,g 12.0,4.0
# From MPEC 2021-P47
C/2018 P5 (PANSTARRS),e,7.2466,216.2762,132.0297,12.84161,0.0214178,0.64139425,51.0572,09/05.0/2025,2000,g 11.0,4.0
# From MPC118841
C/2018 R3 (Lemmon),e,69.6833,324.3326,112.8271,1824,0.0000127,0.99929547,0.0000,06/07.9500/2019,2000,g  9.5,4.0
# From MPC114603
C/2018 R5 (Lemmon),e,103.6725,171.2825,178.2717,22.97920,0.0089475,0.84170508,21.7352,09/05.0/2025,2000,g 11.5,4.0
# From MPEC 2022-QC6
C/2018 S2 (TESS),e,64.1104,85.1071,290.9653,14.36950,0.0180943,0.61770214,45.1634,09/05.0/2025,2000,g  7.5,4.0
# From MPC184408
C/2018 U1 (Lemmon),e,108.3259,75.5128,180.3346,81940,0.0000000,0.99993916,0.0000,11/01.9911/2021,2000,g  5.0,4.0
# From MPC114604
C/2018 V1 (Machholz-Fujikawa-Iwamoto),h,12/04.3620/2018,144.2102,129.6550,89.6081,1.000469,0.390244,2000,12.0,4.0
# From MPC115884
C/2018 V2 (ATLAS),e,159.1600,357.2446,319.3116,25.26370,0.0077617,0.90136319,19.2052,09/05.0/2025,2000,g 15.5,4.0
# From MPEC 2025-A40
P/2018 VN2 (Leonard),e,18.2563,226.4365,138.9280,4.060947,0.1204379,0.47810230,318.4777,09/05.0/2025,2000,g 15.0,4.0
# From MPEC 2025-A40
A/2018 V3,e,164.9083,308.8305,3.5655,126.8555,0.0006898,0.98952664,0.0000,09/10.5263/2019,2000,g 15.7,2.0
# From MPEC 2022-M21
C/2018 V4 (Africano),e,69.0418,78.2480,0.1182,217.5294,0.0003072,0.98526428,0.0000,03/02.4406/2019,2000,g 12.5,4.0
# From MPEC 2021-P47
P/2018 V5 (Trujillo-Sheppard),e,10.5759,171.2850,260.9239,8.983342,0.0366056,0.47569331,92.4562,09/05.0/2025,2000,g 12.5,4.0
# From MPEC 2021-P47
C/2018 W1 (Catalina),e,83.3857,233.6220,251.1609,21.74658,0.0097189,0.93789120,22.4102,09/05.0/2025,2000,g 15.5,2.0
# From MPEC 2021-P47
C/2018 W2 (Africano),h,09/05.8132/2019,116.5223,182.0058,158.2479,1.000959,1.465238,2000,9.5,4.0
# From MPEC 2023-M14
A/2018 W3,e,104.8369,251.6858,313.8472,695.6335,0.0000537,0.99384660,0.0000,04/13.1845/2021,2000,g 10.5,2.0
# From MPC119996
C/2018 X2 (Fitzsimmons),e,23.1125,340.6143,162.0253,141.3452,0.0005865,0.98506858,0.0000,07/10.0640/2019,2000,g 12.0,4.0
# From MPC114604
C/2018 X3 (PANSTARRS),e,43.4249,78.7977,359.8819,12.41588,0.0225288,0.78288265,54.9315,09/05.0/2025,2000,g 14.5,4.0
# From MPEC 2024-A43
C/2018 Y1 (Iwamoto),e,160.4906,147.3211,357.8699,126.3684,0.0006938,0.98975404,0.0000,02/03.1440/2019,2000,g 11.5,4.0
# From MPC114605
P/2018 Y2 (Africano),e,11.6964,297.1118,162.4086,7.458097,0.0483907,0.48002373,117.8356,09/05.0/2025,2000,g 11.5,4.0
# From MPC114605
P/2019 A1 (PANSTARRS),e,13.7739,312.2079,150.7974,5.112082,0.0852722,0.57036118,214.6132,09/05.0/2025,2000,g 16.0,4.0
# From MPEC 2021-P47
P/2019 A2 (ATLAS),e,14.8751,139.3622,323.9743,5.710246,0.0722307,0.38333950,178.8611,09/05.0/2025,2000,g 10.5,4.0
# From MPEC 2022-M21
P/2019 A3 (PANSTARRS),e,15.3544,31.2290,325.6173,3.145072,0.1767088,0.26778429,97.4222,09/05.0/2025,2000,g 16.0,4.0
# From MPEC 2022-L66
P/2019 A4 (PANSTARRS),e,13.3062,119.3538,343.2708,2.614359,0.2331611,0.08746870,213.3556,09/05.0/2025,2000,g 15.0,4.0
# From MPEC 2021-P47
C/2019 A5 (PANSTARRS),e,67.5526,146.5037,355.8424,21.51210,0.0098782,0.70652154,22.5402,09/05.0/2025,2000,g  9.5,4.0
# From MPC114605
P/2019 A6 (Lemmon-PANSTARRS),e,33.3003,280.1724,156.2581,5.356771,0.0794968,0.64033913,203.4840,09/05.0/2025,2000,g 16.0,4.0
# From MPC118842
C/2019 A9 (PANSTARRS),e,84.4055,278.4739,237.8738,39.33876,0.0039946,0.96375412,8.9140,09/05.0/2025,2000,g 15.0,4.0
# From MPEC 2022-L66
C/2019 B1 (Africano),e,123.5000,290.2259,174.8391,140.1359,0.0005941,0.98854769,0.0000,03/18.2253/2019,2000,g 16.0,4.0
# From MPC115885
P/2019 B2 (Groeller),e,16.9486,175.6314,0.5480,3.930180,0.1264985,0.35768690,292.0522,09/05.0/2025,2000,g 14.5,4.0
# From MPEC 2024-JU4
C/2019 B3 (PANSTARRS),e,66.6127,358.4001,264.0003,3390,0.0000050,0.99798539,0.0000,01/19.4607/2021,2000,g  5.5,4.0
# From MPEC 2021-P47
C/2019 C1 (ATLAS),e,36.0350,212.3631,319.0204,698.2026,0.0000534,0.99059489,0.0000,05/04.7187/2020,2000,g 10.0,4.0
# From MPEC 2022-O08
C/2019 D1 (Flewelling),e,34.0172,231.6745,70.7072,135.8582,0.0006224,0.98827886,0.0000,05/08.5176/2019,2000,g 13.0,4.0
# From MPC186629
C/2019 E3 (ATLAS),e,84.3186,347.1904,280.7212,5524,0.0000024,0.99813284,0.0000,11/15.6721/2023,2000,g  2.5,4.0
# From MPEC 2024-GJ3
C/2019 F1 (ATLAS-Africano),h,06/20.9966/2021,54.2593,38.6647,251.2936,1.000142,3.608125,2000,5.5,4.0
# From MPEC 2025-A40
C/2019 F2 (ATLAS),e,19.3406,175.3387,11.6051,16.55439,0.0146330,0.86482454,32.0328,09/05.0/2025,2000,g 12.0,4.0
# From MPEC 2024-E01
C/2019 G2 (PANSTARRS),e,159.2587,208.2490,82.8108,402.0547,0.0001223,0.99426105,0.0000,12/06.3087/2019,2000,g 15.0,4.0
# From MPEC 2022-VC5
A/2019 G3,e,156.8104,49.8861,161.7083,17.10519,0.0139320,0.83421208,34.3783,09/05.0/2025,2000,g 17.1,2.0
# From MPC114607
P/2019 GG21 (PANSTARRS),e,6.0821,340.5659,208.5884,7.468614,0.0482885,0.47165499,111.5647,09/05.0/2025,2000,g 12.0,4.0
# From MPEC 2022-M21
C/2019 H1 (NEOWISE),e,104.3548,269.3129,19.2305,225.9270,0.0002902,0.99185825,0.0000,04/26.6611/2019,2000,g 15.5,4.0
# From MPEC 2023-A50
C/2019 J1 (Lemmon),e,24.5215,98.2388,167.5493,66.31928,0.0018249,0.96259526,4.2780,09/05.0/2025,2000,g 12.0,4.0
# From MPEC 2021-R75
C/2019 J2 (Palomar),e,105.2035,25.4445,98.5334,159.9207,0.0004874,0.98928630,0.0000,07/21.2288/2019,2000,g 13.0,4.0
# From MPC117071
C/2019 J3 (ATLAS),e,131.2920,270.6567,16.4776,11688,0.0000008,0.99979802,0.0000,08/01.7674/2019,2000,g 13.5,4.0
# From MPEC 2022-M21
C/2019 JU6 (ATLAS),e,148.2933,21.6708,94.7403,10868,0.0000009,0.99981319,0.0000,06/02.9138/2019,2000,g 14.5,4.0
# From MPEC 2022-O08
C/2019 K1 (ATLAS),e,87.0207,73.3139,265.7894,2762,0.0000068,0.99926789,0.0000,02/10.6395/2020,2000,g 10.0,4.0
# From MPC119997
C/2019 K4 (Ye),e,105.2853,180.3197,140.0297,1648,0.0000147,0.99861861,0.0000,06/15.3206/2019,2000,g 12.5,4.0
# From MPEC 2021-P47
C/2019 K5 (Young),e,15.2884,177.2922,175.1378,167.8451,0.0004533,0.98774909,0.0000,06/21.0312/2019,2000,g 13.0,4.0
# From MPEC 2021-P47
C/2019 K6 (PANSTARRS),e,132.3927,42.9727,187.4165,895.2757,0.0000368,0.99562481,0.0000,05/18.3476/2020,2000,g 11.5,4.0
# From MPEC 2024-GJ3
C/2019 K7 (Smith),h,06/16.9862/2020,103.4716,308.0417,27.3453,1.000201,4.473448,2000,6.0,4.0
# From MPEC 2021-R75
C/2019 K8 (ATLAS),e,93.0421,290.9852,85.3761,1609,0.0000153,0.99801138,0.0000,07/19.9088/2019,2000,g 11.5,4.0
# From MPEC 2023-A50
C/2019 L1 (PANSTARRS),e,9.9737,254.4270,50.0015,9.815528,0.0320504,0.70397112,71.1959,09/05.0/2025,2000,g 13.5,4.0
# From MPC115886
C/2019 L2 (NEOWISE),e,152.1379,12.5867,18.8422,25.14871,0.0078150,0.93558996,18.3334,09/05.0/2025,2000,g 16.0,4.0
# From MPEC 2024-GJ3
P/2019 LD2 (ATLAS),e,11.6254,178.5115,116.2850,5.163037,0.0840130,0.13225767,171.9760,09/05.0/2025,2000,g  8.5,4.0
# From MPC185656
C/2019 L3 (ATLAS),h,01/10.1657/2022,48.3465,290.7128,171.7661,1.003244,3.559482,2000,4.5,4.0
# From MPEC 2024-YC7
P/2019 LM4 (Palomar),e,36.4152,72.8857,68.2122,5.701993,0.0723876,0.58628115,164.2202,09/05.0/2025,2000,g  9.5,4.0
# From MPC118095
C/2019 LB7 (Kleyna),e,164.2768,4.0192,336.7916,35.05227,0.0047493,0.92883644,11.1760,09/05.0/2025,2000,g 17.0,4.0
# From MPC118095
C/2019 M3 (ATLAS),e,99.6637,155.0636,87.9358,5126,0.0000027,0.99952699,0.0000,12/31.5064/2018,2000,g 12.2,4.0
# From MPEC 2023-JA2
C/2019 M4 (TESS),h,09/09.2767/2019,65.6946,52.6405,260.3355,1.000120,9.190985,2000,5.0,4.0
# From MPEC 2023-C45
